{
  "type": "FeatureCollection",
  "features": [
    {
      "type": "Feature",
      "properties": {
        "norad_id": 41581,
        "name": "INTELSAT 31 (IS-31)",
        "group": "intelsat",
        "lat": 0.006869989759944476,
        "lon": 101.47369155997794,
        "alt_km": 35789.40337293811,
        "timestamp": "2025-12-14T07:33:19.146147+00:00",
        "meta_object_name": "INTELSAT 31 (IS-31)",
        "meta_object_id": "2016-035A",
        "meta_epoch": "2025-12-12T21:35:22.164576",
        "meta_mean_motion": 1.00271383,
        "meta_eccentricity": 0.00020554,
        "meta_inclination": 0.0183,
        "meta_ra_of_asc_node": 268.2699,
        "meta_arg_of_pericenter": 304.2994,
        "meta_mean_anomaly": 98.0553,
        "meta_ephemeris_type": 0,
        "meta_classification_type": "U",
        "meta_norad_cat_id": 41581,
        "meta_element_set_no": 999,
        "meta_rev_at_epoch": 3481,
        "meta_bstar": 0,
        "meta_mean_motion_dot": -1.38e-06,
        "meta_mean_motion_ddot": 0,
        "tle_line1": "1 41581U 16035A   25346.89956209 -.00000138  00000+0  00000+0 0  9993",
        "tle_line2": "2 41581   0.0183 268.2699 0002055 304.2994  98.0553  1.00271383 34819"
      },
      "geometry": {
        "type": "Point",
        "coordinates": [
          101.47369155997794,
          0.006869989759944476
        ]
      }
    },
    {
      "type": "Feature",
      "properties": {
        "norad_id": 41747,
        "name": "INTELSAT 36 (IS-36)",
        "group": "intelsat",
        "lat": -0.02984015181547913,
        "lon": -94.96771406536966,
        "alt_km": 35783.30621703239,
        "timestamp": "2025-12-14T07:33:19.146159+00:00",
        "meta_object_name": "INTELSAT 36 (IS-36)",
        "meta_object_id": "2016-053A",
        "meta_epoch": "2025-12-13T12:03:51.221952",
        "meta_mean_motion": 1.00272804,
        "meta_eccentricity": 0.00013954,
        "meta_inclination": 0.0113,
        "meta_ra_of_asc_node": 0.4303,
        "meta_arg_of_pericenter": 329.8168,
        "meta_mean_anomaly": 1.6387,
        "meta_ephemeris_type": 0,
        "meta_classification_type": "U",
        "meta_norad_cat_id": 41747,
        "meta_element_set_no": 999,
        "meta_rev_at_epoch": 3408,
        "meta_bstar": 0,
        "meta_mean_motion_dot": -1e-07,
        "meta_mean_motion_ddot": 0,
        "tle_line1": "1 41747U 16053A   25347.50267618 -.00000010  00000+0  00000+0 0  9994",
        "tle_line2": "2 41747   0.0113   0.4303 0001395 329.8168   1.6387  1.00272804 34089"
      },
      "geometry": {
        "type": "Point",
        "coordinates": [
          -94.96771406536966,
          -0.02984015181547913
        ]
      }
    },
    {
      "type": "Feature",
      "properties": {
        "norad_id": 41945,
        "name": "INTELSAT 32E (IS-32E)",
        "group": "intelsat",
        "lat": 0.03132342235469205,
        "lon": 153.38408382830966,
        "alt_km": 35787.0870565678,
        "timestamp": "2025-12-14T07:33:19.146171+00:00",
        "meta_object_name": "INTELSAT 32E (IS-32E)",
        "meta_object_id": "2017-007B",
        "meta_epoch": "2025-12-12T11:33:44.679168",
        "meta_mean_motion": 1.00273861,
        "meta_eccentricity": 3.861e-05,
        "meta_inclination": 0.0354,
        "meta_ra_of_asc_node": 82.6036,
        "meta_arg_of_pericenter": 280.6351,
        "meta_mean_anomaly": 208.4399,
        "meta_ephemeris_type": 0,
        "meta_classification_type": "U",
        "meta_norad_cat_id": 41945,
        "meta_element_set_no": 999,
        "meta_rev_at_epoch": 3235,
        "meta_bstar": 0,
        "meta_mean_motion_dot": -2.58e-06,
        "meta_mean_motion_ddot": 0,
        "tle_line1": "1 41945U 17007B   25346.48176712 -.00000258  00000+0  00000+0 0  9998",
        "tle_line2": "2 41945   0.0354  82.6036 0000386 280.6351 208.4399  1.00273861 32350"
      },
      "geometry": {
        "type": "Point",
        "coordinates": [
          153.38408382830966,
          0.03132342235469205
        ]
      }
    },
    {
      "type": "Feature",
      "properties": {
        "norad_id": 42818,
        "name": "INTELSAT 35E (IS-35E)",
        "group": "intelsat",
        "lat": 0.009656333520975632,
        "lon": 162.04074458187532,
        "alt_km": 35787.30513284749,
        "timestamp": "2025-12-14T07:33:19.146183+00:00",
        "meta_object_name": "INTELSAT 35E (IS-35E)",
        "meta_object_id": "2017-041A",
        "meta_epoch": "2025-12-13T09:51:41.378976",
        "meta_mean_motion": 1.00273219,
        "meta_eccentricity": 0.00020505,
        "meta_inclination": 0.0182,
        "meta_ra_of_asc_node": 13.0781,
        "meta_arg_of_pericenter": 249.2789,
        "meta_mean_anomaly": 293.4134,
        "meta_ephemeris_type": 0,
        "meta_classification_type": "U",
        "meta_norad_cat_id": 42818,
        "meta_element_set_no": 999,
        "meta_rev_at_epoch": 3095,
        "meta_bstar": 0,
        "meta_mean_motion_dot": -2.23e-06,
        "meta_mean_motion_ddot": 0,
        "tle_line1": "1 42818U 17041A   25347.41089559 -.00000223  00000+0  00000+0 0  9994",
        "tle_line2": "2 42818   0.0182  13.0781 0002050 249.2789 293.4134  1.00273219 30952"
      },
      "geometry": {
        "type": "Point",
        "coordinates": [
          162.04074458187532,
          0.009656333520975632
        ]
      }
    },
    {
      "type": "Feature",
      "properties": {
        "norad_id": 42950,
        "name": "INTELSAT 37E (IS-37E)",
        "group": "intelsat",
        "lat": -0.004212336191820072,
        "lon": 178.5277565017285,
        "alt_km": 35783.40937699319,
        "timestamp": "2025-12-14T07:33:19.146195+00:00",
        "meta_object_name": "INTELSAT 37E (IS-37E)",
        "meta_object_id": "2017-059A",
        "meta_epoch": "2025-12-13T15:04:33.915648",
        "meta_mean_motion": 1.00272198,
        "meta_eccentricity": 0.00030305,
        "meta_inclination": 0.0183,
        "meta_ra_of_asc_node": 2.7412,
        "meta_arg_of_pericenter": 254.191,
        "meta_mean_anomaly": 33.7726,
        "meta_ephemeris_type": 0,
        "meta_classification_type": "U",
        "meta_norad_cat_id": 42950,
        "meta_element_set_no": 999,
        "meta_rev_at_epoch": 3020,
        "meta_bstar": 0,
        "meta_mean_motion_dot": -1.25e-06,
        "meta_mean_motion_ddot": 0,
        "tle_line1": "1 42950U 17059A   25347.62817032 -.00000125  00000+0  00000+0 0  9999",
        "tle_line2": "2 42950   0.0183   2.7412 0003030 254.1910  33.7726  1.00272198 30201"
      },
      "geometry": {
        "type": "Point",
        "coordinates": [
          178.5277565017285,
          -0.004212336191820072
        ]
      }
    },
    {
      "type": "Feature",
      "properties": {
        "norad_id": 43632,
        "name": "AZERSPACE 2 (IS-38)",
        "group": "intelsat",
        "lat": -0.037832672503433376,
        "lon": -118.33816022174786,
        "alt_km": 35780.903952734145,
        "timestamp": "2025-12-14T07:33:19.146207+00:00",
        "meta_object_name": "AZERSPACE 2 (IS-38)",
        "meta_object_id": "2018-074A",
        "meta_epoch": "2025-12-13T11:57:06.868224",
        "meta_mean_motion": 1.00271726,
        "meta_eccentricity": 0.00013299,
        "meta_inclination": 0.0179,
        "meta_ra_of_asc_node": 341.0856,
        "meta_arg_of_pericenter": 285.6516,
        "meta_mean_anomaly": 40.0836,
        "meta_ephemeris_type": 0,
        "meta_classification_type": "U",
        "meta_norad_cat_id": 43632,
        "meta_element_set_no": 999,
        "meta_rev_at_epoch": 2658,
        "meta_bstar": 0,
        "meta_mean_motion_dot": 1.51e-06,
        "meta_mean_motion_ddot": 0,
        "tle_line1": "1 43632U 18074A   25347.49799616  .00000151  00000+0  00000+0 0  9995",
        "tle_line2": "2 43632   0.0179 341.0856 0001329 285.6516  40.0836  1.00271726 26580"
      },
      "geometry": {
        "type": "Point",
        "coordinates": [
          -118.33816022174786,
          -0.037832672503433376
        ]
      }
    },
    {
      "type": "Feature",
      "properties": {
        "norad_id": 43633,
        "name": "HORIZONS-3E",
        "group": "intelsat",
        "lat": 0.020854854377077535,
        "lon": 5.550292242801772,
        "alt_km": 35785.561884376606,
        "timestamp": "2025-12-14T07:33:19.146219+00:00",
        "meta_object_name": "HORIZONS-3E",
        "meta_object_id": "2018-074B",
        "meta_epoch": "2025-12-13T13:25:29.006400",
        "meta_mean_motion": 1.00268455,
        "meta_eccentricity": 0.00011041,
        "meta_inclination": 0.0436,
        "meta_ra_of_asc_node": 184.9145,
        "meta_arg_of_pericenter": 108.7106,
        "meta_mean_anomaly": 159.2276,
        "meta_ephemeris_type": 0,
        "meta_classification_type": "U",
        "meta_norad_cat_id": 43633,
        "meta_element_set_no": 999,
        "meta_rev_at_epoch": 2647,
        "meta_bstar": 0,
        "meta_mean_motion_dot": -1.6e-07,
        "meta_mean_motion_ddot": 0,
        "tle_line1": "1 43633U 18074B   25347.55936350 -.00000016  00000+0  00000+0 0  9992",
        "tle_line2": "2 43633   0.0436 184.9145 0001104 108.7106 159.2276  1.00268455 26477"
      },
      "geometry": {
        "type": "Point",
        "coordinates": [
          5.550292242801772,
          0.020854854377077535
        ]
      }
    }
  ]
}